$$SOE
2459580.500000000, A.D. 2022-Jan-01 00:00:00.0000, -2.317313368559244E+08, -4.040438111977062E+08, -4.603353220703110E+07,
2459587.500000000, A.D. 2022-Jan-08 00:00:00.0000, -2.229340548335046E+08, -4.086200252864088E+08, -4.499348911186066E+07,
2459594.500000000, A.D. 2022-Jan-15 00:00:00.0000, -2.140309823819825E+08, -4.130022689600079E+08, -4.393208703355238E+07,
2459601.500000000, A.D. 2022-Jan-22 00:00:00.0000, -2.050260727427795E+08, -4.171879452672647E+08, -4.284977512617445E+07,
2459608.500000000, A.D. 2022-Jan-29 00:00:00.0000, -1.959233426855160E+08, -4.211745237302085E+08, -4.174701365473348E+07,
2459615.500000000, A.D. 2022-Feb-05 00:00:00.0000, -1.867268741200573E+08, -4.249595426489457E+08, -4.062427382367611E+07,
2459622.500000000, A.D. 2022-Feb-12 00:00:00.0000, -1.774408134974121E+08, -4.285406125023308E+08, -3.948203788646990E+07,
2459629.500000000, A.D. 2022-Feb-19 00:00:00.0000, -1.680693703227713E+08, -4.319154180760114E+08, -3.832079922107238E+07,
2459636.500000000, A.D. 2022-Feb-26 00:00:00.0000, -1.586168160902531E+08, -4.350817200403407E+08, -3.714106230990869E+07,
2459643.500000000, A.D. 2022-Mar-05 00:00:00.0000, -1.490874834778790E+08, -4.380373565941486E+08, -3.594334268923801E+07,
2459650.500000000, A.D. 2022-Mar-12 00:00:00.0000, -1.394857655784560E+08, -4.407802452391639E+08, -3.472816689357257E+07,
2459657.500000000, A.D. 2022-Mar-19 00:00:00.0000, -1.298161150927185E+08, -4.433083846564386E+08, -3.349607239942825E+07,
2459664.500000000, A.D. 2022-Mar-26 00:00:00.0000, -1.200830434601399E+08, -4.456198566904193E+08, -3.224760757100496E+07,
2459671.500000000, A.D. 2022-Apr-02 00:00:00.0000, -1.102911198580384E+08, -4.477128284958826E+08, -3.098333161849093E+07,
2459678.500000000, A.D. 2022-Apr-09 00:00:00.0000, -1.004449697955984E+08, -4.495855548412669E+08, -2.970381459321362E+07,
2459685.500000000, A.D. 2022-Apr-16 00:00:00.0000, -9.054927294394881E+07, -4.512363799114961E+08, -2.840963739841712E+07,
2459692.500000000, A.D. 2022-Apr-23 00:00:00.0000, -8.060876146844596E+07, -4.526637375222162E+08, -2.710139161008880E+07,
2459699.500000000, A.D. 2022-Apr-30 00:00:00.0000, -7.062822072914714E+07, -4.538661519868909E+08, -2.577967911939979E+07,
2459706.500000000, A.D. 2022-May-07 00:00:00.0000, -6.061248928191494E+07, -4.548422416087970E+08, -2.444511203898925E+07,
2459713.500000000, A.D. 2022-May-14 00:00:00.0000, -5.056645678739991E+07, -4.555907217607813E+08, -2.309831275240564E+07,
2459720.500000000, A.D. 2022-May-21 00:00:00.0000, -4.049506185738248E+07, -4.561104067948695E+08, -2.173991385829177E+07,
2459727.500000000, A.D. 2022-May-28 00:00:00.0000, -3.040329031640182E+07, -4.564002117396957E+08, -2.037055804333505E+07,
2459734.500000000, A.D. 2022-Jun-04 00:00:00.0000, -2.029617360067846E+07, -4.564591540962329E+08, -1.899089793436611E+07,
2459741.500000000, A.D. 2022-Jun-11 00:00:00.0000, -1.017878714830132E+07, -4.562863557260249E+08, -1.760159594202739E+07,
2459748.500000000, A.D. 2022-Jun-18 00:00:00.0000, -5.624873988960894E+04, -4.558810448143705E+08, -1.620332409785119E+07,
2459755.500000000, A.D. 2022-Jun-25 00:00:00.0000, 1.006628324239046E+07, -4.552425579374949E+08, -1.479676388959751E+07,
2459762.500000000, A.D. 2022-Jul-02 00:00:00.0000, 2.018361177429324E+07, -4.543703422957718E+08, -1.338260611197203E+07,
2459769.500000000, A.D. 2022-Jul-09 00:00:00.0000, 3.029050376035344E+07, -4.532639579326853E+08, -1.196155075348848E+07,
2459776.500000000, A.D. 2022-Jul-16 00:00:00.0000, 4.038169316332929E+07, -4.519230788534508E+08, -1.053430682535300E+07,
2459783.500000000, A.D. 2022-Jul-23 00:00:00.0000, 5.045188249590982E+07, -4.503474929617821E+08, -9.101591923815578E+06,
2459790.500000000, A.D. 2022-Jul-30 00:00:00.0000, 6.049574276113714E+07, -4.485371041642671E+08, -7.664131807332009E+06,
2459797.500000000, A.D. 2022-Aug-06 00:00:00.0000, 7.050791544298783E+07, -4.464919359908649E+08, -6.222660265260190E+06,
2459804.500000000, A.D. 2022-Aug-13 00:00:00.0000, 8.048301572579530E+07, -4.442121339747425E+08, -4.777918976942271E+06,
2459811.500000000, A.D. 2022-Aug-20 00:00:00.0000, 9.041563537420714E+07, -4.416979672917197E+08, -3.330657257711768E+06,
2459818.500000000, A.D. 2022-Aug-27 00:00:00.0000, 1.003003453426353E+08, -4.389498303818308E+08, -1.881631756812185E+06,
2459825.500000000, A.D. 2022-Sep-03 00:00:00.0000, 1.101316983628150E+08, -4.359682446589253E+08, -4.316061384279728E+05,
2459832.500000000, A.D. 2022-Sep-10 00:00:00.0000, 1.199042316001297E+08, -4.327538602792356E+08, 1.018649248322278E+06,
2459839.500000000, A.D. 2022-Sep-17 00:00:00.0000, 1.296124694087935E+08, -4.293074579649777E+08, 2.468357707874149E+06,
2459846.500000000, A.D. 2022-Sep-24 00:00:00.0000, 1.392509262473633E+08, -4.256299509282215E+08, 3.916736535636067E+06,
2459853.500000000, A.D. 2022-Oct-01 00:00:00.0000, 1.488141099956968E+08, -4.217223869123359E+08, 5.362997330620348E+06,
2459860.500000000, A.D. 2022-Oct-08 00:00:00.0000, 1.582965260812659E+08, -4.175859498245441E+08, 6.806346288734466E+06,
2459867.500000000, A.D. 2022-Oct-15 00:00:00.0000, 1.676926814826615E+08, -4.132219597558204E+08, 8.245984660298616E+06,
2459874.500000000, A.D. 2022-Oct-22 00:00:00.0000, 1.769970864275751E+08, -4.086318730659286E+08, 9.681109434174448E+06,
2459881.500000000, A.D. 2022-Oct-29 00:00:00.0000, 1.862042562824023E+08, -4.038172851197895E+08, 1.111091380710536E+07,
2459888.500000000, A.D. 2022-Nov-05 00:00:00.0000, 1.953087157329515E+08, -3.987799329279122E+08, 1.253458746945068E+07,
2459895.500000000, A.D. 2022-Nov-12 00:00:00.0000, 2.043050032911163E+08, -3.935216964186634E+08, 1.395131699101330E+07,
2459902.500000000, A.D. 2022-Nov-19 00:00:00.0000, 2.131876754070531E+08, -3.880445992912050E+08, 1.536028629492563E+07,
2459909.500000000, A.D. 2022-Nov-26 00:00:00.0000, 2.219513104475684E+08, -3.823508098409194E+08, 1.676067716304593E+07,
2459916.500000000, A.D. 2022-Dec-03 00:00:00.0000, 2.305905127046475E+08, -3.764426417634105E+08, 1.815166975672013E+07,
2459923.500000000, A.D. 2022-Dec-10 00:00:00.0000, 2.390999164765299E+08, -3.703225549127982E+08, 1.953244315026022E+07,
2459930.500000000, A.D. 2022-Dec-17 00:00:00.0000, 2.474741902417398E+08, -3.639931560328652E+08, 2.090217587265007E+07,
2459937.500000000, A.D. 2022-Dec-24 00:00:00.0000, 2.557080410306000E+08, -3.574571995191723E+08, 2.226004644160756E+07,
2459944.500000000, A.D. 2022-Dec-31 00:00:00.0000, 2.637962193476039E+08, -3.507175880962972E+08, 2.360523386539525E+07,
2459951.500000000, A.D. 2023-Jan-07 00:00:00.0000, 2.717335247641091E+08, -3.437773724402697E+08, 2.493691817926779E+07,
2459958.500000000, A.D. 2023-Jan-14 00:00:00.0000, 2.795148102112297E+08, -3.366397492431474E+08, 2.625428123718429E+07,
2459965.500000000, A.D. 2023-Jan-21 00:00:00.0000, 2.871349843242577E+08, -3.293080608862265E+08, 2.755650755815339E+07,
2459972.500000000, A.D. 2023-Jan-28 00:00:00.0000, 2.945890155025969E+08, -3.217857969114308E+08, 2.884278487436213E+07,
2459979.500000000, A.D. 2023-Feb-04 00:00:00.0000, 3.018719374725175E+08, -3.140765942588944E+08, 3.011230464755677E+07,
2459986.500000000, A.D. 2023-Feb-11 00:00:00.0000, 3.089788545518706E+08, -3.061842364605664E+08, 3.136426270243667E+07,
2459993.500000000, A.D. 2023-Feb-18 00:00:00.0000, 3.159049465465958E+08, -2.981126526083085E+08, 3.259785991521704E+07,
2460000.500000000, A.D. 2023-Feb-25 00:00:00.0000, 3.226454735345019E+08, -2.898659162528980E+08, 3.381230291945803E+07,
2460007.500000000, A.D. 2023-Mar-04 00:00:00.0000, 3.291957806310589E+08, -2.814482442097293E+08, 3.500680482065240E+07,
2460014.500000000, A.D. 2023-Mar-11 00:00:00.0000, 3.355513027580054E+08, -2.728639952656162E+08, 3.618058591624297E+07,
2460021.500000000, A.D. 2023-Mar-18 00:00:00.0000, 3.417075694533285E+08, -2.641176688312185E+08, 3.733287441178271E+07,
2460028.500000000, A.D. 2023-Mar-25 00:00:00.0000, 3.476602099169920E+08, -2.552139035810288E+08, 3.846290710960048E+07,
2460035.500000000, A.D. 2023-Apr-01 00:00:00.0000, 3.534049587087688E+08, -2.461574756824429E+08, 3.956993006220011E+07,
2460042.500000000, A.D. 2023-Apr-08 00:00:00.0000, 3.589376614756165E+08, -2.369532953858669E+08, 4.065319934645459E+07,
2460049.500000000, A.D. 2023-Apr-15 00:00:00.0000, 3.642542783630199E+08, -2.276064030809298E+08, 4.171198208196736E+07,
2460056.500000000, A.D. 2023-Apr-22 00:00:00.0000, 3.693508869081841E+08, -2.181219678685514E+08, 4.274555727677293E+07,
2460063.500000000, A.D. 2023-Apr-29 00:00:00.0000, 3.742236871390529E+08, -2.085052863926139E+08, 4.375321643188959E+07,
2460070.500000000, A.D. 2023-May-06 00:00:00.0000, 3.788690071092916E+08, -1.987617801481622E+08, 4.473426421038156E+07,
2460077.500000000, A.D. 2023-May-13 00:00:00.0000, 3.832833078825914E+08, -1.888969921591193E+08, 4.568801918614636E+07,
2460084.500000000, A.D. 2023-May-20 00:00:00.0000, 3.874631881899509E+08, -1.789165835165626E+08, 4.661381460925104E+07,
2460091.500000000, A.D. 2023-May-27 00:00:00.0000, 3.914053889426647E+08, -1.688263298074101E+08, 4.751099916596559E+07,
2460098.500000000, A.D. 2023-Jun-03 00:00:00.0000, 3.951067976477916E+08, -1.586321174085927E+08, 4.837893772858850E+07,
2460105.500000000, A.D. 2023-Jun-10 00:00:00.0000, 3.985644527389442E+08, -1.483399396623738E+08, 4.921701208996773E+07,
2460112.500000000, A.D. 2023-Jun-17 00:00:00.0000, 4.017755478999545E+08, -1.379558929956126E+08, 5.002462166767091E+07,
2460119.500000000, A.D. 2023-Jun-24 00:00:00.0000, 4.047374366890344E+08, -1.274861729300827E+08, 5.080118415069717E+07,
2460126.500000000, A.D. 2023-Jul-01 00:00:00.0000, 4.074476377048720E+08, -1.169370691578560E+08, 5.154613613104435E+07,
2460133.500000000, A.D. 2023-Jul-08 00:00:00.0000, 4.099038386117883E+08, -1.063149588633165E+08, 5.225893393969325E+07,
2460140.500000000, A.D. 2023-Jul-15 00:00:00.0000, 4.121038977382224E+08, -9.562630112843367E+07, 5.293905457175758E+07,
2460147.500000000, A.D. 2023-Jul-22 00:00:00.0000, 4.140458467577061E+08, -8.487763346220426E+07, 5.358599629107677E+07,
$$EOE